ONEWEB-0020             
1 45133U 20008C   24088.58718439  .00000522  00000+0  14593-2 0  9995
2 45133  87.8995 197.3233 0001880 112.7597 247.3729 13.10376053202187
ONEWEB-0021             
1 45134U 20008D   24088.52544877  .00000603  00000+0  16916-2 0  9994
2 45134  87.8995 197.3470 0001822 106.2040 253.9288 13.10371699202485
ONEWEB-0022             
1 45135U 20008E   24088.54783290 -.00000418  00000+0 -12319-2 0  9990
2 45135  87.8996 197.3606 0001880 113.7802 246.3522 13.10399214202188
ONEWEB-0023             
1 45136U 20008F   24088.53843743  .00000085  00000+0  20817-3 0  9991
2 45136  87.8991 197.3354 0002289 102.5551 257.5833 13.10368984201914
ONEWEB-0024             
1 45137U 20008G   24088.58555668  .00000477  00000+0  13301-2 0  9997
2 45137  87.8988 197.3222 0001711 105.3043 254.8274 13.10376102202080
ONEWEB-0025             
1 45138U 20008H   24088.75614872  .00000584  00000+0  16364-2 0  9991
2 45138  87.8984 197.2880 0001874  99.4789 260.6550 13.10371633202431
ONEWEB-0026             
1 45139U 20008J   24088.50437927 -.00111563  00000+0 -31997+0 0  9997
2 45139  87.9010 182.2602 0002255 115.9759 244.1601 13.11127744204859
ONEWEB-0028             
1 45140U 20008K   24088.53614703  .00000025  00000+0  33529-4 0  9997
2 45140  87.9040 182.3012 0002013  86.6594 273.4764 13.11418268202377
